{"type": "FeatureCollection", "features": [ {"type": "Feature", "properties": {"norad_id": 43058, "name": "GSAT0218 (GALILEO 22)", "group": "galileo", "lat": -13.028234349599416, "lon": -142.87149283379478, "alt_km": 23217.465216933353, "timestamp": "2025-12-21T09:37:22.917737+00:00", "meta": {"OBJECT_NAME": "GSAT0218 (GALILEO 22)", "OBJECT_ID": "2017-079D", "EPOCH": "2025-12-20T06:05:26.226528", "MEAN_MOTION": 1.70474115, "ECCENTRICITY": 0.00027735, "INCLINATION": 55.1262, "RA_OF_ASC_NODE": 226.4264, "ARG_OF_PERICENTER": 307.8467, "MEAN_ANOMALY": 52.2377, "EPHEMERIS_TYPE": 0, "CLASSIFICATION_TYPE": "U", "NORAD_CAT_ID": 43058, "ELEMENT_SET_NO": 999, "REV_AT_EPOCH": 4996, "BSTAR": 0, "MEAN_MOTION_DOT": 7e-07, "MEAN_MOTION_DDOT": 0}, "tle": {"line1": "1 43058U 17079D   25354.25377577  .00000070  00000+0  00000+0 0  9991", "line2": "2 43058  55.1262 226.4264 0002773 307.8467  52.2377  1.70474115 49967"}}, "geometry": {"type": "Point", "coordinates": [-142.87149283379478, -13.028234349599416]}}, {"type": "Feature", "properties": {"norad_id": 43564, "name": "GSAT0221 (GALILEO 25)", "group": "galileo", "lat": 35.609589585866495, "lon": 14.053620856748445, "alt_km": 23227.083673864752, "timestamp": "2025-12-21T09:37:22.917748+00:00", "meta": {"OBJECT_NAME": "GSAT0221 (GALILEO 25)", "OBJECT_ID": "2018-060A", "EPOCH": "2025-12-19T13:40:28.820064", "MEAN_MOTION": 1.70475889, "ECCENTRICITY": 0.0006721, "INCLINATION": 57.2264, "RA_OF_ASC_NODE": 346.6332, "ARG_OF_PERICENTER": 285.6827, "MEAN_ANOMALY": 74.2548, "EPHEMERIS_TYPE": 0, "CLASSIFICATION_TYPE": "U", "NORAD_CAT_ID": 43564, "ELEMENT_SET_NO": 999, "REV_AT_EPOCH": 4610, "BSTAR": 0, "MEAN_MOTION_DOT": -7.2e-07, "MEAN_MOTION_DDOT": 0}, "tle": {"line1": "1 43564U 18060A   25353.56977801 -.00000072  00000+0  00000+0 0  9996", "line2": "2 43564  57.2264 346.6332 0006721 285.6827  74.2548  1.70475889 46101"}}, "geometry": {"type": "Point", "coordinates": [14.053620856748445, 35.609589585866495]}}, {"type": "Feature", "properties": {"norad_id": 43565, "name": "GSAT0222 (GALILEO 26)", "group": "galileo", "lat": -57.200188464243155, "lon": -104.93857006645719, "alt_km": 23210.04084791789, "timestamp": "2025-12-21T09:37:22.917760+00:00", "meta": {"OBJECT_NAME": "GSAT0222 (GALILEO 26)", "OBJECT_ID": "2018-060B", "EPOCH": "2025-12-18T00:42:17.845344", "MEAN_MOTION": 1.70475645, "ECCENTRICITY": 0.00060883, "INCLINATION": 57.23, "RA_OF_ASC_NODE": 346.6777, "ARG_OF_PERICENTER": 265.4214, "MEAN_ANOMALY": 94.5238, "EPHEMERIS_TYPE": 0, "CLASSIFICATION_TYPE": "U", "NORAD_CAT_ID": 43565, "ELEMENT_SET_NO": 999, "REV_AT_EPOCH": 4612, "BSTAR": 0, "MEAN_MOTION_DOT": -7.6e-07, "MEAN_MOTION_DDOT": 0}, "tle": {"line1": "1 43565U 18060B   25352.02937321 -.00000076  00000+0  00000+0 0  9994", "line2": "2 43565  57.2300 346.6777 0006088 265.4214  94.5238  1.70475645 46121"}}, "geometry": {"type": "Point", "coordinates": [-104.93857006645719, -57.200188464243155]}}, {"type": "Feature", "properties": {"norad_id": 43566, "name": "GSAT0219 (GALILEO 23)", "group": "galileo", "lat": 37.607205371129524, "lon": 136.82525217224935, "alt_km": 23233.39585143068, "timestamp": "2025-12-21T09:37:22.917771+00:00", "meta": {"OBJECT_NAME": "GSAT0219 (GALILEO 23)", "OBJECT_ID": "2018-060C", "EPOCH": "2025-12-18T20:05:25.027008", "MEAN_MOTION": 1.70475846, "ECCENTRICITY": 0.00058667, "INCLINATION": 57.2292, "RA_OF_ASC_NODE": 346.6575, "ARG_OF_PERICENTER": 289.8664, "MEAN_ANOMALY": 70.0835, "EPHEMERIS_TYPE": 0, "CLASSIFICATION_TYPE": "U", "NORAD_CAT_ID": 43566, "ELEMENT_SET_NO": 999, "REV_AT_EPOCH": 4611, "BSTAR": 0, "MEAN_MOTION_DOT": -7.4e-07, "MEAN_MOTION_DDOT": 0}, "tle": {"line1": "1 43566U 18060C   25352.83709522 -.00000074  00000+0  00000+0 0  9992", "line2": "2 43566  57.2292 346.6575 0005866 289.8664  70.0835  1.70475846 46114"}}, "geometry": {"type": "Point", "coordinates": [136.82525217224935, 37.607205371129524]}}, {"type": "Feature", "properties": {"norad_id": 43567, "name": "GSAT0220 (GALILEO 24)", "group": "galileo", "lat": -1.7514578916389563, "lon": -14.550468737720031, "alt_km": 23216.217090500137, "timestamp": "2025-12-21T09:37:22.917782+00:00", "meta": {"OBJECT_NAME": "GSAT0220 (GALILEO 24)", "OBJECT_ID": "2018-060D", "EPOCH": "2025-12-19T15:28:13.770912", "MEAN_MOTION": 1.70475932, "ECCENTRICITY": 0.000607, "INCLINATION": 57.2288, "RA_OF_ASC_NODE": 346.6359, "ARG_OF_PERICENTER": 288.3471, "MEAN_ANOMALY": 71.5983, "EPHEMERIS_TYPE": 0, "CLASSIFICATION_TYPE": "U", "NORAD_CAT_ID": 43567, "ELEMENT_SET_NO": 999, "REV_AT_EPOCH": 4611, "BSTAR": 0, "MEAN_MOTION_DOT": -7.2e-07, "MEAN_MOTION_DDOT": 0}, "tle": {"line1": "1 43567U 18060D   25353.64460383 -.00000072  00000+0  00000+0 0  9990", "line2": "2 43567  57.2288 346.6359 0006070 288.3471  71.5983  1.70475932 46114"}}, "geometry": {"type": "Point", "coordinates": [-14.550468737720031, -1.7514578916389563]}}, {"type": "Feature", "properties": {"norad_id": 49809, "name": "GSAT0223 (GALILEO 27)", "group": "galileo", "lat": 57.171850993663035, "lon": 73.919622737105, "alt_km": 23228.15405191615, "timestamp": "2025-12-21T09:37:22.917792+00:00", "meta": {"OBJECT_NAME": "GSAT0223 (GALILEO 27)", "OBJECT_ID": "2021-116A", "EPOCH": "2025-12-19T11:56:47.637312", "MEAN_MOTION": 1.7047609, "ECCENTRICITY": 0.00044147, "INCLINATION": 57.2179, "RA_OF_ASC_NODE": 346.5305, "ARG_OF_PERICENTER": 254.6091, "MEAN_ANOMALY": 105.9777, "EPHEMERIS_TYPE": 0, "CLASSIFICATION_TYPE": "U", "NORAD_CAT_ID": 49809, "ELEMENT_SET_NO": 999, "REV_AT_EPOCH": 2512, "BSTAR": 0, "MEAN_MOTION_DOT": -7.2e-07, "MEAN_MOTION_DDOT": 0}, "tle": {"line1": "1 49809U 21116A   25353.49777358 -.00000072  00000+0  00000+0 0  9997", "line2": "2 49809  57.2179 346.5305 0004414 254.6091 105.9777  1.70476090 25129"}}, "geometry": {"type": "Point", "coordinates": [73.919622737105, 57.171850993663035]}}, {"type": "Feature", "properties": {"norad_id": 49810, "name": "GSAT0224 (GALILEO 28)", "group": "galileo", "lat": -17.704618218068735, "lon": 178.3403688526429, "alt_km": 23218.673526913975, "timestamp": "2025-12-21T09:37:22.917803+00:00", "meta": {"OBJECT_NAME": "GSAT0224 (GALILEO 28)", "OBJECT_ID": "2021-116B", "EPOCH": "2025-12-20T04:43:34.979232", "MEAN_MOTION": 1.70476091, "ECCENTRICITY": 0.0003747, "INCLINATION": 57.2188, "RA_OF_ASC_NODE": 346.5104, "ARG_OF_PERICENTER": 259.7047, "MEAN_ANOMALY": 282.5653, "EPHEMERIS_TYPE": 0, "CLASSIFICATION_TYPE": "U", "NORAD_CAT_ID": 49810, "ELEMENT_SET_NO": 999, "REV_AT_EPOCH": 2515, "BSTAR": 0, "MEAN_MOTION_DOT": -7e-07, "MEAN_MOTION_DDOT": 0}, "tle": {"line1": "1 49810U 21116B   25354.19693263 -.00000070  00000+0  00000+0 0  9997", "line2": "2 49810  57.2188 346.5104 0003747 259.7047 282.5653  1.70476091 25152"}}, "geometry": {"type": "Point", "coordinates": [178.3403688526429, -17.704618218068735]}}, {"type": "Feature", "properties": {"norad_id": 59598, "name": "GSAT0225 (GALILEO 29)", "group": "galileo", "lat": -11.274591482941918, "lon": -65.93519530509815, "alt_km": 23217.33957647482, "timestamp": "2025-12-21T09:37:22.917814+00:00", "meta": {"OBJECT_NAME": "GSAT0225 (GALILEO 29)", "OBJECT_ID": "2024-079A", "EPOCH": "2025-12-19T07:40:30.040032", "MEAN_MOTION": 1.7047502, "ECCENTRICITY": 0.0002191, "INCLINATION": 55.0052, "RA_OF_ASC_NODE": 106.1117, "ARG_OF_PERICENTER": 185.2617, "MEAN_ANOMALY": 171.1938, "EPHEMERIS_TYPE": 0, "CLASSIFICATION_TYPE": "U", "NORAD_CAT_ID": 59598, "ELEMENT_SET_NO": 999, "REV_AT_EPOCH": 1024, "BSTAR": 0, "MEAN_MOTION_DOT": -6e-08, "MEAN_MOTION_DDOT": 0}, "tle": {"line1": "1 59598U 24079A   25353.31979213 -.00000006  00000+0  00000+0 0  9996", "line2": "2 59598  55.0052 106.1117 0002191 185.2617 171.1938  1.70475020 10248"}}, "geometry": {"type": "Point", "coordinates": [-65.93519530509815, -11.274591482941918]}}, {"type": "Feature", "properties": {"norad_id": 59600, "name": "GSAT0227 (GALILEO 30)", "group": "galileo", "lat": 54.07227701415962, "lon": -179.04884208357467, "alt_km": 23208.77552813043, "timestamp": "2025-12-21T09:37:22.917825+00:00", "meta": {"OBJECT_NAME": "GSAT0227 (GALILEO 30)", "OBJECT_ID": "2024-079C", "EPOCH": "2025-12-19T12:12:51.636672", "MEAN_MOTION": 1.70474897, "ECCENTRICITY": 0.0002924, "INCLINATION": 55.0006, "RA_OF_ASC_NODE": 106.105, "ARG_OF_PERICENTER": 116.8359, "MEAN_ANOMALY": 243.1562, "EPHEMERIS_TYPE": 0, "CLASSIFICATION_TYPE": "U", "NORAD_CAT_ID": 59600, "ELEMENT_SET_NO": 999, "REV_AT_EPOCH": 1030, "BSTAR": 0, "MEAN_MOTION_DOT": -6e-08, "MEAN_MOTION_DDOT": 0}, "tle": {"line1": "1 59600U 24079C   25353.50893098 -.00000006  00000+0  00000+0 0  9997", "line2": "2 59600  55.0006 106.1050 0002924 116.8359 243.1562  1.70474897 10305"}}, "geometry": {"type": "Point", "coordinates": [-179.04884208357467, 54.07227701415962]}}, {"type": "Feature", "properties": {"norad_id": 61182, "name": "GSAT0232 (GALILEO 32)", "group": "galileo", "lat": -54.83861093753307, "lon": 145.98922410835462, "alt_km": 23226.141307623548, "timestamp": "2025-12-21T09:37:22.917836+00:00", "meta": {"OBJECT_NAME": "GSAT0232 (GALILEO 32)", "OBJECT_ID": "2024-167A", "EPOCH": "2025-12-21T03:10:03.152352", "MEAN_MOTION": 1.7047363, "ECCENTRICITY": 0.0001887, "INCLINATION": 55.2384, "RA_OF_ASC_NODE": 226.2006, "ARG_OF_PERICENTER": 206.1545, "MEAN_ANOMALY": 264.4477, "EPHEMERIS_TYPE": 0, "CLASSIFICATION_TYPE": "U", "NORAD_CAT_ID": 61182, "ELEMENT_SET_NO": 999, "REV_AT_EPOCH": 784, "BSTAR": 0, "MEAN_MOTION_DOT": 7.3e-07, "MEAN_MOTION_DDOT": 0}, "tle": {"line1": "1 61182U 24167A   25355.13198093  .00000073  00000+0  00000+0 0  9990", "line2": "2 61182  55.2384 226.2006 0001887 206.1545 264.4477  1.70473630  7846"}}, "geometry": {"type": "Point", "coordinates": [145.98922410835462, -54.83861093753307]}}]}